[{"OBJECT_NAME":"STARLINK-5302","OBJECT_ID":"2023-065BF","EPOCH":"2026-03-09T22:00:01.999584","MEAN_MOTION":15.13980102,"ECCENTRICITY":0.00010945,"INCLINATION":42.9994,"RA_OF_ASC_NODE":221.1829,"ARG_OF_PERICENTER":274.8052,"MEAN_ANOMALY":309.7286,"EPHEMERIS_TYPE":0,"CLASSIFICATION_TYPE":"U","NORAD_CAT_ID":56556,"ELEMENT_SET_NO":999,"REV_AT_EPOCH":578,"BSTAR":0.0064037634,"MEAN_MOTION_DOT":0.00120052,"MEAN_MOTION_DDOT":0},{"OBJECT_NAME":"FENGYUN 1C DEB","OBJECT_ID":"1999-025JS","EPOCH":"2026-03-09T09:31:11.592480","MEAN_MOTION":14.89836418,"ECCENTRICITY":0.01602799,"INCLINATION":99.0124,"RA_OF_ASC_NODE":19.279,"ARG_OF_PERICENTER":316.4187,"MEAN_ANOMALY":42.4455,"EPHEMERIS_TYPE":0,"CLASSIFICATION_TYPE":"U","NORAD_CAT_ID":29944,"ELEMENT_SET_NO":999,"REV_AT_EPOCH":1743,"BSTAR":0.0013476123,"MEAN_MOTION_DOT":0.00016456,"MEAN_MOTION_DDOT":0}]
